CCSDS_OMM_VERS,COMMENT,CREATION_DATE,ORIGINATOR,OBJECT_NAME,OBJECT_ID,CENTER_NAME,REF_FRAME,TIME_SYSTEM,MEAN_ELEMENT_THEORY,EPOCH,MEAN_MOTION,ECCENTRICITY,INCLINATION,RA_OF_ASC_NODE,ARG_OF_PERICENTER,MEAN_ANOMALY,EPHEMERIS_TYPE,CLASSIFICATION_TYPE,NORAD_CAT_ID,ELEMENT_SET_NO,REV_AT_EPOCH,BSTAR,MEAN_MOTION_DOT,MEAN_MOTION_DDOT,SEMIMAJOR_AXIS,PERIOD,APOAPSIS,PERIAPSIS,OBJECT_TYPE,RCS_SIZE,COUNTRY_CODE,LAUNCH_DATE,SITE,DECAY_DATE,FILE,GP_ID,TLE_LINE0,TLE_LINE1,TLE_LINE2
"2.0","GENERATED VIA SPACE-TRACK.ORG API","2012-09-02T16:52:44","18 SPCS","BLITS","2009-049G","EARTH","TEME","UTC","SGP4","2012-09-02T15:07:31.865952","14.21586235","0.00034850","98.6392","298.5397","170.0326","190.0923","0","U","35871","999","15296","0.00000021177000","-0.00000043","0.0000000000000","7198.134","101.295","822.508","817.491","PAYLOAD","SMALL","CIS","2009-09-17","TTMTR","","1344237","90383752","0 BLITS","1 35871U 09049G   12246.63022993 -.00000043  00000-0  21177-6 0  9997","2 35871 098.6392 298.5397 0003485 170.0326 190.0923 14.21586235152969"
"2.0","GENERATED VIA SPACE-TRACK.ORG API","2012-09-03T01:09:49","18 SPCS","BLITS","2009-049G","EARTH","TEME","UTC","SGP4","2012-09-03T02:56:59.975231","14.21586270","0.00034820","98.6393","299.0222","168.9621","191.1643","0","U","35871","999","15303","0.00000037426000","-0.00000042","0.0000000000000","7198.134","101.295","822.506","817.493","PAYLOAD","SMALL","CIS","2009-09-17","TTMTR","","1344331","90385722","0 BLITS","1 35871U 09049G   12247.12291638 -.00000042  00000-0  37426-6 0  9999","2 35871 098.6393 299.0222 0003482 168.9621 191.1643 14.21586270153033"
"2.0","GENERATED VIA SPACE-TRACK.ORG API","2012-09-03T23:09:09","18 SPCS","BLITS","2009-049G","EARTH","TEME","UTC","SGP4","2012-09-04T02:35:56.180832","14.21586639","0.00034940","98.6395","299.9872","166.0163","194.1153","0","U","35871","999","15317","0.00001219900000","-0.00000016","0.0000000000000","7198.133","101.295","822.513","817.483","PAYLOAD","SMALL","CIS","2009-09-17","TTMTR","","1344707","90400110","0 BLITS","1 35871U 09049G   12248.10828913 -.00000016  00000-0  12199-4 0  9999","2 35871 098.6395 299.9872 0003494 166.0163 194.1153 14.21586639153171"
"2.0","GENERATED VIA SPACE-TRACK.ORG API","2012-09-04T16:56:46","18 SPCS","BLITS","2009-049G","EARTH","TEME","UTC","SGP4","2012-09-04T16:06:45.346751","14.21586863","0.00035610","98.6395","300.5385","163.8268","196.3030","0","U","35871","999","15325","0.00001879000000","-0.00000002","0.0000000000000","7198.132","101.295","822.560","817.434","PAYLOAD","SMALL","CIS","2009-09-17","TTMTR","","1345094","90413797","0 BLITS","1 35871U 09049G   12248.67135818 -.00000002  00000-0  18790-4 0  9994","2 35871 098.6395 300.5385 0003561 163.8268 196.3030 14.21586863153251"
"2.0","GENERATED VIA SPACE-TRACK.ORG API","2012-09-05T00:58:59","18 SPCS","BLITS","2009-049G","EARTH","TEME","UTC","SGP4","2012-09-05T02:14:52.296576","14.21586779","0.00036070","98.6393","300.9517","162.4314","197.6990","0","U","35871","999","15331","0.00001493100000","-0.00000010","0.0000000000000","7198.133","101.295","822.594","817.401","PAYLOAD","SMALL","CIS","2009-09-17","TTMTR","","1345245","90415757","0 BLITS","1 35871U 09049G   12249.09366084 -.00000010  00000-0  14931-4 0  9994","2 35871 098.6393 300.9517 0003607 162.4314 197.6990 14.21586779153310"
"2.0","GENERATED VIA SPACE-TRACK.ORG API","2012-09-05T18:12:37","18 SPCS","BLITS","2009-049G","EARTH","TEME","UTC","SGP4","2012-09-05T14:04:20.391167","14.21586920","0.00036690","98.6390","301.4338","161.1327","198.9999","0","U","35871","999","15338","0.00001859100000","-0.00000002","0.0000000000000","7198.132","101.295","822.638","817.356","PAYLOAD","SMALL","CIS","2009-09-17","TTMTR","","1345505","90427813","0 BLITS","1 35871U 09049G   12249.58634712 -.00000002  00000-0  18591-4 0  9991","2 35871 098.6390 301.4338 0003669 161.1327 198.9999 14.21586920153380"
"2.0","GENERATED VIA SPACE-TRACK.ORG API","2012-09-06T00:58:32","18 SPCS","BLITS","2009-049G","EARTH","TEME","UTC","SGP4","2012-09-06T03:35:09.653856","14.21586869","0.00037210","98.6387","301.9848","159.4099","200.7236","0","U","35871","999","15346","0.00001644000000","-0.00000007","0.0000000000000","7198.132","101.295","822.676","817.319","PAYLOAD","SMALL","CIS","2009-09-17","TTMTR","","1345588","90429124","0 BLITS","1 35871U 09049G   12250.14941729 -.00000007  00000-0  16440-4 0  9990","2 35871 098.6387 301.9848 0003721 159.4099 200.7236 14.21586869153469"
"2.0","GENERATED VIA SPACE-TRACK.ORG API","2012-09-06T21:12:23","18 SPCS","BLITS","2009-049G","EARTH","TEME","UTC","SGP4","2012-09-06T17:05:58.877663","14.21586945","0.00037330","98.6389","302.5363","157.7606","202.3731","0","U","35871","999","15354","0.00001772700000","-0.00000004","0.0000000000000","7198.132","101.295","822.684","817.310","PAYLOAD","SMALL","CIS","2009-09-17","TTMTR","","1346145","90445540","0 BLITS","1 35871U 09049G   12250.71248701 -.00000004  00000-0  17727-4 0  9999","2 35871 098.6389 302.5363 0003733 157.7606 202.3731 14.21586945153540"
"2.0","GENERATED VIA SPACE-TRACK.ORG API","2012-09-07T16:52:43","18 SPCS","BLITS","2009-049G","EARTH","TEME","UTC","SGP4","2012-09-07T16:44:55.027103","14.21587163","0.00037800","98.6382","303.5001","155.3763","204.7595","0","U","35871","999","15368","0.00002115500000","0.00000003","0.0000000000000","7198.131","101.295","822.717","817.275","PAYLOAD","SMALL","CIS","2009-09-17","TTMTR","","1347132","90459050","0 BLITS","1 35871U 09049G   12251.69785911  .00000003  00000-0  21155-4 0  9994","2 35871 098.6382 303.5001 0003780 155.3763 204.7595 14.21587163153685"
"2.0","GENERATED VIA SPACE-TRACK.ORG API","2012-09-09T09:34:42","18 SPCS","BLITS","2009-049G","EARTH","TEME","UTC","SGP4","2012-09-08T02:53:01.979520","14.21587415","0.00037850","98.6380","303.9136","154.5055","205.6347","0","U","35871","999","15374","0.00002833900000","0.00000019","0.0000000000000","7198.130","101.295","822.720","817.271","PAYLOAD","SMALL","CIS","2009-09-17","TTMTR","","1347821","90487248","0 BLITS","1 35871U 09049G   12252.12016180 +.00000019 +00000-0 +28339-4 0  9996","2 35871 098.6380 303.9136 0003785 154.5055 205.6347 14.21587415153748"
"2.0","GENERATED VIA SPACE-TRACK.ORG API","2012-09-09T00:50:09","18 SPCS","BLITS","2009-049G","EARTH","TEME","UTC","SGP4","2012-09-09T02:31:58.096127","14.21587538","0.00038220","98.6385","304.8785","151.4037","208.7364","0","U","35871","999","15388","0.00002960600000","0.00000022","0.0000000000000","7198.130","101.295","822.746","817.244","PAYLOAD","SMALL","CIS","2009-09-17","TTMTR","","1347653","90476743","0 BLITS","1 35871U 09049G   12253.10553352  .00000022  00000-0  29606-4 0  9994","2 35871 098.6385 304.8785 0003822 151.4037 208.7364 14.21587538153885"
"2.0","GENERATED VIA SPACE-TRACK.ORG API","2012-09-09T16:40:08","18 SPCS","BLITS","2009-049G","EARTH","TEME","UTC","SGP4","2012-09-09T16:02:47.281920","14.21587655","0.00038370","98.6385","305.4298","149.6254","210.5138","0","U","35871","999","15396","0.00003182000000","0.00000027","0.0000000000000","7198.130","101.295","822.756","817.233","PAYLOAD","SMALL","CIS","2009-09-17","TTMTR","","1347869","90488617","0 BLITS","1 35871U 09049G   12253.66860280  .00000027  00000-0  31820-4 0  9992","2 35871 098.6385 305.4298 0003837 149.6254 210.5138 14.21587655153966"
"2.0","GENERATED VIA SPACE-TRACK.ORG API","2012-09-10T00:40:18","18 SPCS","BLITS","2009-049G","EARTH","TEME","UTC","SGP4","2012-09-10T03:52:15.401567","14.21587432","0.00039330","98.6383","305.9119","148.2708","211.8704","0","U","35871","999","15403","0.00002123300000","0.00000003","0.0000000000000","7198.130","101.295","822.826","817.164","PAYLOAD","SMALL","CIS","2009-09-17","TTMTR","","1347954","90490374","0 BLITS","1 35871U 09049G   12254.16128937  .00000003  00000-0  21233-4 0  9995","2 35871 098.6383 305.9119 0003933 148.2708 211.8704 14.21587432154032"
"2.0","GENERATED VIA SPACE-TRACK.ORG API","2012-09-10T17:11:03","18 SPCS","BLITS","2009-049G","EARTH","TEME","UTC","SGP4","2012-09-10T14:00:22.328927","14.21587517","0.00039640","98.6383","306.3252","147.0698","213.0733","0","U","35871","999","15409","0.00002259400000","0.00000006","0.0000000000000","7198.130","101.295","822.848","817.142","PAYLOAD","SMALL","CIS","2009-09-17","TTMTR","","1348323","90503934","0 BLITS","1 35871U 09049G   12254.58359177  .00000006  00000-0  22594-4 0  9997","2 35871 098.6383 306.3252 0003964 147.0698 213.0733 14.21587517154090"
"2.0","GENERATED VIA SPACE-TRACK.ORG API","2012-09-11T01:23:08","18 SPCS","BLITS","2009-049G","EARTH","TEME","UTC","SGP4","2012-09-11T03:31:11.587295","14.21587363","0.00040560","98.6383","306.8764","145.2536","214.8912","0","U","35871","999","15417","0.00001525900000","-0.00000010","0.0000000000000","7198.131","101.295","822.915","817.076","PAYLOAD","SMALL","CIS","2009-09-17","TTMTR","","1348588","90506345","0 BLITS","1 35871U 09049G   12255.14666189 -.00000010  00000-0  15259-4 0  9990","2 35871 098.6383 306.8764 0004056 145.2536 214.8912 14.21587363154173"
"2.0","GENERATED VIA SPACE-TRACK.ORG API","2012-09-11T16:40:37","18 SPCS","BLITS","2009-049G","EARTH","TEME","UTC","SGP4","2012-09-11T17:02:00.815423","14.21587281","0.00040880","98.6382","307.4276","144.1028","216.0421","0","U","35871","999","15425","0.00001055100000","-0.00000020","0.0000000000000","7198.131","101.295","822.938","817.053","PAYLOAD","SMALL","CIS","2009-09-17","TTMTR","","1348937","90519896","0 BLITS","1 35871U 09049G   12255.70973166 -.00000020  00000-0  10551-4 0  9999","2 35871 098.6382 307.4276 0004088 144.1028 216.0421 14.21587281154253"
